#dP2022  7  4  0  0  0.00000000     289 d+D   IGS14 FIT AIUB
## 2217  86400.00000000   300.00000000 59764 0.0000000000000
+  116   G01G02G03G04G05G06G07G08G09G10G11G12G13G14G15G16G17
+        G18G19G20G21G22G23G24G25G26G27G28G29G30G31G32R01R02
+        R03R04R05R07R08R09R12R13R14R15R17R18R19R20R21R24E01
+        E02E03E04E05E07E08E09E10E11E12E13E14E15E18E19E21E24
+        E25E26E27E30E31E33E34E36C06C07C08C09C10C11C12C13C14
+        C16C19C20C21C22C23C24C25C26C27C28C29C30C32C33C34C35
+        C36C37C38C39C40C41C42C43C44C45C46J02J03J04  0  0  0
++         5  5  5  5  5  5  5  5  5  5  5  5  5  5  5  5  5
++         5  5  5  5  5  5  5  5  5  5  5  5  5  5  5  5  5
++         5  5  5  5  5  5  5  5  5  5  5  5  5  5  5  8  5
++         5  5  5  5  5  5  5  5  5  5  5  5  5  5  5  5  5
++         5  5  5  5  5  5  5  5  5 10  5 10  5  5  5  5  5
++         5  5  5  5  5  5  5  5  5  5  5  5  5  5  5  5  5
++         5  5  5 10  5  5  5  5  5  5  5  5  5  5  0  0  0
%c M  cc GPS ccc cccc cccc cccc cccc ccccc ccccc ccccc ccccc
%c cc cc ccc ccc cccc cccc cccc cccc ccccc ccccc ccccc ccccc
%f  1.2500000  1.025000000  0.00000000000  0.000000000000000
%f  0.0000000  0.000000000  0.00000000000  0.000000000000000
%i    0    0    0    0      0      0      0      0         0
%i    0    0    0    0      0      0      0      0         0
/* Center for Orbit Determination in Europe (CODE)                              
/* MGEX orbits and clocks for year-day 2022-1850                                
/* Middle day of a 3-day long-arc multi-GNSS solution                           
/* Systems considered: GPS/GLONASS/Galileo/BeiDou/QZSS                          
/* Product reference - DOI 10.7892/boris.75882.3                                
/* PCV:IGS14      OL/AL:FES2014b NONE     YN ORB:CoN CLK:CoN                    
*  2022  7  4 16 30  0.00000000
PG01  22327.075247  14094.429985   3967.864380    328.030692
PG02  -9801.235600 -19334.109428  15891.126015   -651.925614
PG03  12838.537045  10419.895294  20694.050184   -298.016222
PG04  20748.688791   4126.233378  16122.503050   -149.813093
PG05  -6807.025996 -22497.209613 -12399.064983    -87.910010
PG06   4903.136806 -14399.701112  21823.601946    370.837323
PG07  20798.065002   1216.403764 -16340.120671    320.357837
PG08  14606.900513   9003.101978 -20402.564028    -74.827159
PG09  24925.511932  -5263.769679   7514.832990   -322.327309
PG10 -11428.364941  19777.663369 -13149.647198   -479.649600
PG11  -7694.650888 -20380.404497  15205.568051    -11.676630
PG12 -10741.647264 -14309.240072  19399.902400   -241.240196
PG13  -4084.143302 -14552.612427 -21995.592279    342.016943
PG14  13105.347461 -18303.020133 -14014.048440   -112.018883
PG15 -15717.403506  -8283.370303 -20243.079798    -48.078099
PG16    436.900959  25042.608881  -8382.240629   -513.322799
PG17  20998.739233 -13826.219049   9072.932818    632.907532
PG18 -20335.276758  -1154.594279 -17122.317884    123.243220
PG19  14616.768858 -15374.184415  15580.929154    179.307707
PG20  -1140.548371 -26659.435157   -340.643609    505.985514
PG21  20312.953010  16859.390698  -4707.751565    161.220358
PG22 -11360.079457  16653.754172  17621.712468    286.714210
PG23 -14640.884533   9780.930498 -19862.666675    -31.370150
PG24 -22278.276061 -14870.023952   -734.439828    205.385014
PG25 -15294.432537    848.871404  21392.373619    345.219267
PG26  -3961.242438  25911.901952   2981.052804    216.288299
PG27    726.433267  15684.452715 -21580.766187    219.641328
PG28   9181.963733 -24350.997680  -5376.210596    330.554749
PG29 -25386.530560   3522.878078   7065.978423   -530.383225
PG30  13996.042292  -8553.448196 -20838.486469   -533.183000
PG31  -3179.483409  16139.791178  20626.289949   -184.426303
PG32 -18388.946485  15966.303172  10516.417333   -167.645686
PR01 -18260.136634  11228.792734 -13835.519458     10.915010
PR02 -14831.890650  20049.797783   5249.174085    523.148320
PR03  -2240.376943  16359.252127  19468.628874     59.586372
PR04  11098.106022   3533.291103  22724.097839    149.414803
PR05  18582.927349 -11131.072998  13500.216623     95.658032
PR07   1763.546278 -16004.653156 -19759.694046     37.327629
PR08 -11253.829194  -3438.765458 -22570.245346    -66.058725
PR09   2266.839998 -18805.356536 -17022.003343     63.964111
PR12 -10938.786245   1982.436596  22988.612600     19.123960
PR13  -2929.743660  17815.811563  18010.951570    -24.306119
PR14   7567.132793  24331.109130   1429.967062     24.964554
PR15  12968.375997  15987.373551 -15043.392651     94.844622
PR17   8930.054379  11598.786388 -20877.342488    540.554715
PR18  22379.136770   8860.300423  -8510.815156    122.427280
PR19  24311.796152   2776.482116   7183.890313   -195.111331
PR20  10987.671478  -7237.391697  21860.860066    -73.971605
PR21 -10506.045562 -11582.750468  20154.596866   -314.759072
PR24 -10189.419245   8224.771475 -21884.848466    101.874344
PE01 -15058.215807 -11911.755409  22533.398734   -508.745830
PE02  15105.429678  11711.589231 -22595.933586    309.829117
PE03  22790.151438   2457.293227  18721.982144   -575.566930
PE04 -26649.684239  12605.301941  -2682.001854  -1064.192890
PE05   5448.368866  16369.583857  24059.939787   -166.078683
PE07  14790.498077 -20543.194244 -15322.689680   -684.476886
PE08  26555.653944 -12811.827549   2524.372920   -557.883419
PE09 -14760.992377  20526.407006  15415.329381   -576.067448
PE10 -14405.543901   9529.424317 -24053.780551   -524.069598
PE11  -4004.073616  16146.092902 -24501.906479   3126.962630
PE12 -21970.708622   1850.466100 -19751.331539    -44.715339
PE13   4703.273297 -15698.071071  24644.760608    429.639339
PE14 -26253.946529  15469.444241  -7039.733921  -1788.804490
PE15  22047.694158  -1701.902988  19675.660750    735.338890
PE18  24284.211596  -6554.070354  -1800.742225  -1253.136840
PE19 -21162.987479  -4403.996397 -20212.015964  -5187.478550
PE21  -6490.500840 -26966.891235  10336.915247   -743.977587
PE24  -7209.671418  27056.480965   9563.857804   -706.576868
PE25   6305.924446  27107.336205 -10070.158990   -579.899319
PE26 -15964.583923 -20419.969240  14293.257772  -1338.350910
PE27   6394.875362 -27604.967606  -8559.749765   -337.130110
PE30  15721.568619 -10925.981680 -22581.680212   -645.370037
PE31 -15409.684428  11984.223812  22262.003743   -499.361340
PE33 -26295.624141 -13217.660303  -3138.386503   -455.017694
PE34  26347.681015  13065.610368   3302.423895   -525.416472
PE36  15260.627721  20374.397409 -15116.089864   -397.422445
PC06  -9282.181055  23525.431286  33725.810954    324.152925
PC07 -13819.211741  39001.280656  -8489.475261   -385.117346
PC08   1739.822058  34650.205511 -23872.247498    390.537903
PC09  -1097.055563  24772.229382  34494.323409   -938.609615
PC10  -9156.024427  39152.736779 -13224.444675    121.224594
PC11  10975.516015  14460.115304 -21126.382320    454.219443
PC12  -9849.192978  14104.742630 -21948.340321   -584.804091
PC13   5264.439664  36719.816323 -19657.895454     14.381551
PC14   2637.293976  20602.101319  18686.880902    527.368881
PC16 -11856.386396  22564.135336  33735.591416    142.216837
PC19 -10266.570060 -12856.428582 -22511.500004   -138.976268
PC20   4001.214065 -24216.611448 -13231.308066   -964.332560
PC21 -16871.330490  21753.305580  -4650.237398   -612.414755
PC22 -19248.940813   6423.337178 -19170.431468   -963.029702
PC23  18989.203861   5074.500937 -19797.522467   -940.907125
PC24   4133.707715  25029.895792  11600.523616   -968.355526
PC25  17533.839739  20605.738927  -6797.474049   -712.492737
PC26  -9171.742066  15099.558716  21586.578677    714.196432
PC27  18745.736391 -11323.486153  17277.295552    749.015604
PC28  27822.801848   -472.863296   2060.762670     86.069558
PC29 -20959.874103 -10442.896395  15167.631023    577.137389
PC30  -1005.403878 -15903.495129  22896.941897    500.642441
PC32  16740.787594 -21807.400226   4753.554794   -973.825270
PC33  10289.068759  12939.033427  22490.490593    -86.993787
PC34   2267.309804  15917.073158 -22825.864835   -366.332851
PC35 -27864.993862    708.616942   -947.531806    350.533794
PC36 -16853.240595 -21332.853179   6328.411011   -972.520025
PC37  10327.200320 -13851.042890 -21896.499661   -913.603725
PC38  -5083.152259  30814.922134 -28246.094468      7.715288
PC39 -17864.986532  21535.708548  31499.592048     34.917501
PC40 -21302.185613  35979.687612  -6205.769336     -0.109228
PC41  19153.539646  -5893.332669  19468.555273    -53.651168
PC42  -4793.257728  24582.672284  12377.529444   -955.562725
PC43  20357.949684  10958.389923 -15654.935831      0.965886
PC44 -18456.432133  12034.558902 -17124.105273    713.287190
PC45 -18841.867045  -4784.163454  20036.086672    800.286988
PC46  -5486.140218 -25375.415052 -10271.058238   -414.104499
PJ02 -28102.616813  25460.154782  23496.791024     -1.304761
PJ03 -28146.934709  18563.305534 -20613.892556     -3.279942
PJ04 -22141.953549  34393.990269  -5518.614275    118.164544
EOF
